satname,norad_id,inclination_deg,eccentricity,mean_motion_rev_per_day,perigee_km,apogee_km,l1,l2
STARLINK-1008,44714,53.1528,0.0002926,15.47285979,422.67894516952674,426.65994750192294,1 44714U 19074B   26147.33847594  .00064806  00000+0  12485-2 0  9999,2 44714  53.1528 168.3462 0002926  42.3731 317.7503 15.47285979360984
STARLINK-1012,44718,53.157,0.0002839,15.47577922,421.8828014888186,425.74494919583685,1 44718U 19074F   26147.91959910  .00064176  00000+0  12241-2 0  9993,2 44718  53.1570 165.8778 0002839  39.8477 320.2740 15.47577922361062
STARLINK-1017,44723,53.0479,0.000547,15.30390837,470.8968518170277,478.39379567920787,1 44723U 19074L   26147.77659570  .00030321  00000+0  10252-2 0  9997,2 44723  53.0479 164.6606 0005470   2.6303 357.4724 15.30390837361055
STARLINK-1020,44725,53.1586,0.0004185,15.52608326,406.27338907747435,411.954318041905,1 44725U 19074N   26147.52732425  .00066384  00000+0  10595-2 0  9991,2 44725  53.1586 192.2181 0004185  22.7614 337.3582 15.52608326360644
STARLINK-1036,44741,53.0415,0.00031,15.67808414,363.08343463854817,367.26428737237165,1 44741U 19074AE  26147.76754557  .00055025  00000+0  49286-3 0  9995,2 44741  53.0415 161.5187 0003100 341.0909  18.9991 15.67808414361099
STARLINK-1039,44744,53.0586,0.0003348,15.27697008,480.40174654618477,484.995762167302,1 44744U 19074AH  26147.45915206  .00038388  00000+0  14049-2 0  9995,2 44744  53.0586 211.2928 0003348   6.3503 353.7537 15.27697008360379
STARLINK-1042,44747,53.0428,0.00035,15.53527496,404.0617966755417,408.8109980536965,1 44747U 19074AL  26147.93373316  .00029981  00000+0  46901-3 0  9993,2 44747  53.0428  73.4320 0003500  70.6042 289.5345 15.53527496362370
STARLINK-1043,44748,53.0484,0.0001064,15.61526557,382.5274322683763,383.96625475027395,1 44748U 19074AM  26147.30855824  .00040361  00000+0  46605-3 0  9990,2 44748  53.0484 173.4838 0001064  72.2544 287.8586 15.61526557360895
STARLINK-1046,44751,53.0482,0.0007217,15.53619684,401.271775102201,411.06424095078637,1 44751U 19074AQ  26147.54099035  .00068401  00000+0  10512-2 0  9996,2 44751  53.0482 193.3001 0007217  26.1410 333.9963 15.53619684360635
STARLINK-1047,44752,53.068,0.0003802,15.3418191,460.75039249646125,465.95266037196234,1 44752U 19074AR  26147.94542463  .00009627  00000+0  29771-3 0  9992,2 44752  53.0680 135.2653 0003802  90.7052 269.4385 15.34181910361502
STARLINK-1048,44753,53.044,0.0007302,15.65982408,365.48705297248216,375.34263808769447,1 44753U 19074AS  26147.42844448  .00056221  00000+0  54130-3 0  9993,2 44753  53.0440 145.0393 0007302  20.0919 340.0382 15.65982408361298
STARLINK-1063,44768,53.156,0.0001956,15.47341157,423.17712322609987,425.8383178407721,1 44768U 19074BH  26147.93238012  .00062556  00000+0  12036-2 0  9995,2 44768  53.1560 206.5349 0001956  24.2013 335.9086 15.47341157360510
STARLINK-1067,44771,53.0427,0.0006967,15.72737196,346.3897280126903,355.76621615479144,1 44771U 19074BL  26147.79353921  .00077477  00000+0  56157-3 0  9991,2 44771  53.0427 175.6674 0006967 350.4630   9.6255 15.72737196360904
STARLINK-1068,44772,53.0412,0.0002482,15.7349762,347.24012648832286,350.5794325096658,1 44772U 19074BM  26147.93029881  .00079067  00000+0  55523-3 0  9996,2 44772  53.0412 148.6981 0002482  72.1655 287.9634 15.73497620361283
STARLINK-1114,44927,53.0415,0.0001912,15.63747083,375.552983697572,378.1360886370012,1 44927U 20001P   26147.94171213  .00104807  00000+0  10924-2 0  9994,2 44927  53.0415 304.8964 0001912 337.7919  22.3012 15.63747083352444
STARLINK-1123,44930,53.1452,0.0003238,15.5605558,396.891458547806,401.2803881129548,1 44930U 20001S   26147.92796474  .00087927  00000+0  12322-2 0  9995,2 44930  53.1452 331.2276 0003238 252.8059 107.2599 15.56055580352084
STARLINK-1094,44941,53.1534,0.0003356,15.52735502,406.46556730476186,411.02092132474627,1 44941U 20001AD  26147.92744725  .00081239  00000+0  12867-2 0  9993,2 44941  53.1534 305.9731 0003356 290.1957  69.8692 15.52735502352446
STARLINK-1122,44949,53.1561,0.0003122,15.52411559,407.56820198060905,411.80651951145865,1 44949U 20001AM  26147.74276858  .00070379  00000+0  11303-2 0  9995,2 44949  53.1561 307.4364 0003122 289.2752  70.7921 15.52411559352401
STARLINK-1080,44961,53.045,0.0001385,15.6649199,368.01675231617537,369.885695754233,1 44961U 20001AZ  26148.00002315 -.00097983  00000+0 -92816-3 0  9995,2 44961  53.0450 265.1771 0001385  38.2502 149.2916 15.66491990  5826
STARLINK-1090,44968,53.1497,0.0002061,15.48882199,418.5937364825577,421.3959264234827,1 44968U 20001BG  26147.96142381  .00072150  00000+0  13128-2 0  9999,2 44968  53.1497 293.8315 0002061 303.3369  56.7442 15.48882199352619
STARLINK-1132,45044,53.1526,0.0002361,15.53871354,403.8338482291101,407.0370511398514,1 45044U 20006A   26147.58594454  .00073185  00000+0  11144-2 0  9995,2 45044  53.1526 237.0675 0002361 349.4827  10.6134 15.53871354349159
STARLINK-1131,45047,53.1569,0.0003242,15.50651003,412.62188643472564,417.0264424537527,1 45047U 20006D   26147.57700742  .00053554  00000+0  91969-3 0  9998,2 45047  53.1569 269.6815 0003242 327.3891  32.6918 15.50651003348697
STARLINK-1134,45048,53.0272,0.0007682,15.55287721,396.1084127791555,406.5243649658196,1 45048U 20006E   26147.46840325  .00124001  00000+0  17748-2 0  9997,2 45048  53.0272 220.6576 0007682  25.4127 334.7259 15.55287721349354
STARLINK-1156,45054,53.1592,0.0002893,15.33969011,462.00510449986723,465.96395601727545,1 45054U 20006L   26147.72824607  .00035367  00000+0  10673-2 0  9994,2 45054  53.1592 273.2133 0002893 323.6306  36.4500 15.33969011348653
STARLINK-1166,45060,53.0462,0.0003872,15.57400284,392.5616328472197,397.80689283316406,1 45060U 20006S   26147.74239296  .00086666  00000+0  11554-2 0  9994,2 45060  53.0462 252.4546 0003872 330.1974  29.8816 15.57400284348939
STARLINK-1169,45061,53.1556,0.000365,15.3706351,452.3041398617661,457.2921825294379,1 45061U 20006T   26147.72079528  .00057180  00000+0  15524-2 0  9993,2 45061  53.1556 272.0888 0003650 282.5546  77.5049 15.37063510348675
STARLINK-1171,45062,53.0412,0.0002455,15.72674573,349.60454042304536,352.9086726838632,1 45062U 20006U   26147.54421744  .00072785  00000+0  53012-3 0  9998,2 45062  53.0412 220.5664 0002455 321.8321  38.2522 15.72674573349369
STARLINK-1133,45064,53.1569,0.0003674,15.33956963,461.5065478453171,466.5341650708424,1 45064U 20006W   26147.69923988  .00052138  00000+0  15651-2 0  9999,2 45064  53.1569 250.1278 0003674 329.8548  30.2242 15.33956963348989
STARLINK-1167,45071,53.1572,0.0002814,15.36243223,455.3067990380241,459.1537437383613,1 45071U 20006AD  26147.52378803  .00050602  00000+0  14131-2 0  9995,2 45071  53.1572 250.2026 0002814 282.8233  77.2456 15.36243223348964
STARLINK-1168,45072,53.1584,0.0003244,15.34111739,461.34070024707125,465.7795933559164,1 45072U 20006AE  26148.00002315  .00021377  00000+0  64782-3 0  9997,2 45072  53.1584 248.9273 0003244 336.5925 352.3685 15.34111739  5874
STARLINK-1172,45074,53.156,0.0002949,15.37243053,452.25123798489494,456.28098934133413,1 45074U 20006AG  26147.55378542  .00054520  00000+0  14727-2 0  9995,2 45074  53.1560 249.4816 0002949 295.8882  64.1818 15.37243053348974
STARLINK-1153,45080,53.1581,0.0003942,15.36263138,454.47672027603767,459.8656772599452,1 45080U 20006AN  26147.57220073  .00055239  00000+0  15395-2 0  9999,2 45080  53.1581 249.8929 0003942 294.5382  65.5210 15.36263138348974
STARLINK-1151,45081,53.0489,0.00038,15.76036723,339.1291514888944,344.23621444795026,1 45081U 20006AP  26147.60046037  .00085381  00000+0  53629-3 0  9994,2 45081  53.0489 209.2599 0003800 335.2637  24.8200 15.76036723349524
STARLINK-1185,45087,53.1596,0.0004631,15.4454177,429.5707130598985,435.87893328051814,1 45087U 20006AV  26147.51548815  .00057038  00000+0  12092-2 0  9997,2 45087  53.1596 230.9520 0004631 339.0664  21.0153 15.44541770349232
STARLINK-1183,45088,53.1578,0.0004135,15.33898731,461.364219362581,467.0228267051298,1 45088U 20006AW  26147.65807768  .00072931  00000+0  21827-2 0  9993,2 45088  53.1578 235.1290 0004135 338.6377  21.4453 15.33898731349180
STARLINK-1152,45096,53.0336,0.0004278,15.47338304,421.6059074047953,427.4262573820906,1 45096U 20006BE  26147.41783035  .00068244  00000+0  13110-2 0  9994,2 45096  53.0336 192.4787 0004278  27.8623 332.2612 15.47338304349747
STARLINK-1184,45098,53.0523,0.0003918,15.13724522,522.1489291600174,527.5581125321532,1 45098U 20006BG  26147.65035036  .00023676  00000+0  13112-2 0  9995,2 45098  53.0523 247.7889 0003918   8.7629 351.3431 15.13724522348988
STARLINK-1193,45100,53.0469,0.0003974,15.66619011,365.9053699196893,371.2676657716738,1 45100U 20006BJ  26147.42160417  .00056252  00000+0  52841-3 0  9995,2 45100  53.0469 205.8587 0003974 302.6582  57.4049 15.66619011349554
STARLINK-1143,45179,53.0354,0.0005068,15.8507292,312.7267704160404,319.5120687229155,1 45179U 20012B   26148.00002315  .00238354  00000+0  96651-3 0  9997,2 45179  53.0354 295.7568 0005068 319.8421 221.2897 15.85072920  5967
STARLINK-1202,45183,53.158,0.0002792,15.33668423,462.96793559370235,466.7890754519867,1 45183U 20012F   26147.92741257  .00047699  00000+0  14469-2 0  9993,2 45183  53.1580  30.6070 0002792 127.4045 232.7212 15.33668423347097
STARLINK-1216,45185,53.1562,0.000274,15.33943049,462.18696956748136,465.9364944726285,1 45185U 20012H   26147.90864365  .00049379  00000+0  14842-2 0  9991,2 45185  53.1562  30.5748 0002740 130.5566 229.5675 15.33943049347037
STARLINK-1225,45187,53.1562,0.0002298,15.33896567,462.62758937596027,465.772327442045,1 45187U 20012K   26147.90701921  .00042714  00000+0  12884-2 0  9991,2 45187  53.1562  31.0415 0002298 128.1183 232.0026 15.33896567347077
STARLINK-1230,45189,53.1578,0.0002632,15.33827096,462.60560415368127,466.2075190845171,1 45189U 20012M   26147.91735740  .00043270  00000+0  13078-2 0  9994,2 45189  53.1578  31.0587 0002632 122.3669 237.7588 15.33827096344302
